[{"OBJECT_NAME":"KUIPER-00174","OBJECT_ID":"2025-217AB","EPOCH":"2026-03-09T02:11:54.435264","MEAN_MOTION":14.79931155,"ECCENTRICITY":0.00015415,"INCLINATION":51.905,"RA_OF_ASC_NODE":30.7651,"ARG_OF_PERICENTER":78.6806,"MEAN_ANOMALY":281.433,"EPHEMERIS_TYPE":0,"CLASSIFICATION_TYPE":"U","NORAD_CAT_ID":65787,"ELEMENT_SET_NO":999,"REV_AT_EPOCH":2499,"BSTAR":0.00070468891,"MEAN_MOTION_DOT":5.155e-5,"MEAN_MOTION_DDOT":0},{"OBJECT_NAME":"DMSP 5D-2 F11 DEB","OBJECT_ID":"1991-082CQ","EPOCH":"2026-03-09T04:24:17.495712","MEAN_MOTION":14.80535874,"ECCENTRICITY":0.00217802,"INCLINATION":98.804,"RA_OF_ASC_NODE":157.6646,"ARG_OF_PERICENTER":309.7308,"MEAN_ANOMALY":80.4142,"EPHEMERIS_TYPE":0,"CLASSIFICATION_TYPE":"U","NORAD_CAT_ID":35534,"ELEMENT_SET_NO":999,"REV_AT_EPOCH":74495,"BSTAR":0.0048551764,"MEAN_MOTION_DOT":0.0003748,"MEAN_MOTION_DDOT":0}]
